NORAD_CAT_ID,OBJECT_NAME,OBJECT_TYPE,EPOCH,MEAN_MOTION,ECCENTRICITY,INCLINATION,RA_OF_ASC_NODE,ARG_OF_PERICENTER,MEAN_ANOMALY,BSTAR,MEAN_MOTION_DOT,MEAN_MOTION_DDOT,TLE_LINE0,TLE_LINE1,TLE_LINE2,SEMIMAJOR_AXIS,PERIOD,APOGEE,PERIGEE,DECAYED
53283.0,STARLINK-4175,PAYLOAD,2023-06-05 19:51:25,15.08842645,0.0001094,53.2174,28.5899,98.369,261.7426,6.7262e-05,7.83e-06,0.0,0 STARLINK-4175,1 53283U 22086AT  23156.82737703  .00000783  00000-0  67262-4 0  9998,2 53283  53.2174  28.5899 0001094  98.3690 261.7426 15.08842645 49043,6917.872,95.437,540.494,538.98,0.0
53283.0,STARLINK-4175,PAYLOAD,2023-06-06 00:37:34,15.08846573,0.0001118,53.2175,27.6977,97.6302,262.4818,8.7718e-05,1.109e-05,0.0,0 STARLINK-4175,1 53283U 22086AT  23157.02609376  .00001109  00000-0  87718-4 0  9996,2 53283  53.2175  27.6977 0001118  97.6302 262.4818 15.08846573 48901,6917.86,95.437,540.499,538.952,0.0
53283.0,STARLINK-4175,PAYLOAD,2023-06-06 08:34:30,15.08841779,9.99e-05,53.2173,26.2109,89.8922,270.2185,6.0825e-05,6.8e-06,0.0,0 STARLINK-4175,1 53283U 22086AT  23157.35729686  .00000680  00000-0  60825-4 0  9992,2 53283  53.2173  26.2109 0000999  89.8922 270.2185 15.08841779 48950,6917.875,95.437,540.431,539.049,0.0
53283.0,STARLINK-4175,PAYLOAD,2023-06-07 00:28:21,15.08845941,0.0001102,53.2177,23.237,93.3921,266.7198,3.2324e-05,2.27e-06,0.0,0 STARLINK-4175,1 53283U 22086AT  23158.01969492  .00000227  00000-0  32324-4 0  9997,2 53283  53.2177  23.2370 0001102  93.3921 266.7198 15.08845941 49227,6917.862,95.437,540.49,538.965,0.0
53283.0,STARLINK-4175,PAYLOAD,2023-06-07 21:08:22,15.08839315,0.0001002,53.2175,19.372,92.5489,267.5618,-6.9786e-06,-3.99e-06,0.0,0 STARLINK-4175,1 53283U 22086AT  23158.88082149 -.00000399  00000-0 -69786-5 0  9992,2 53283  53.2175  19.3720 0001002  92.5489 267.5618 15.08839315 49357,6917.882,95.438,540.441,539.054,0.0
53283.0,STARLINK-4175,PAYLOAD,2023-06-08 00:19:09,15.08842361,0.0001044,53.2177,18.7772,91.9994,268.1118,1.8685e-05,1e-07,0.0,0 STARLINK-4175,1 53283U 22086AT  23159.01329866  .00000010  00000-0  18685-4 0  9997,2 53283  53.2177  18.7772 0001044  91.9994 268.1118 15.08842361 49200,6917.873,95.437,540.46,539.016,0.0
53283.0,STARLINK-4175,PAYLOAD,2023-06-08 20:59:10,15.08796713,9.28e-05,53.218,14.91,114.0098,246.0991,0.00079945,0.00012443,0.0,0 STARLINK-4175,1 53283U 22086AT  23159.87442289  .00012443  00000-0  79945-3 0  9994,2 53283  53.2180  14.9100 0000928 114.0098 246.0991 15.08796713 49336,6918.013,95.44,540.52,539.236,0.0
53283.0,STARLINK-4175,PAYLOAD,2023-06-09 14:28:24,15.08831412,0.0001015,53.2169,11.6412,86.1247,273.9861,0.00010424,1.371e-05,0.0,0 STARLINK-4175,1 53283U 22086AT  23160.60306470  .00001371  00000-0  10424-3 0  9993,2 53283  53.2169  11.6412 0001015  86.1247 273.9861 15.08831412 49618,6917.907,95.438,540.474,539.069,0.0
53283.0,STARLINK-4175,PAYLOAD,2023-06-09 20:49:57,15.08836633,0.0001028,53.2168,10.4523,82.3856,277.7253,4.2217e-05,3.84e-06,0.0,0 STARLINK-4175,1 53283U 22086AT  23160.86802479  .00000384  00000-0  42217-4 0  9990,2 53283  53.2168  10.4523 0001028  82.3856 277.7253 15.08836633 49656,6917.891,95.438,540.467,539.045,0.0
53283.0,STARLINK-4175,PAYLOAD,2023-06-10 14:19:11,15.08839951,0.0001088,53.2171,7.1803,89.4845,270.6272,-3.7744e-05,-8.88e-06,0.0,0 STARLINK-4175,1 53283U 22086AT  23161.59666646 -.00000888  00000-0 -37744-4 0  9995,2 53283  53.2171   7.1803 0001088  89.4845 270.6272 15.08839951 49767,6917.881,95.438,540.498,538.993,0.0
53283.0,STARLINK-4175,PAYLOAD,2023-06-10 20:40:43,15.08850247,0.0001082,53.217,5.991,87.9356,272.176,-4.3307e-05,-9.77e-06,0.0,0 STARLINK-4175,1 53283U 22086AT  23161.86161954 -.00000977  00000-0 -43307-4 0  9998,2 53283  53.2170   5.9910 0001082  87.9356 272.1760 15.08850247 49800,6917.849,95.437,540.463,538.966,0.0
53283.0,STARLINK-4175,PAYLOAD,2023-06-10 23:51:30,15.08850919,0.0001101,53.2173,5.3963,86.5997,273.5121,-3.3508e-05,-8.21e-06,0.0,0 STARLINK-4175,1 53283U 22086AT  23161.99409827 -.00000821  00000-0 -33508-4 0  9996,2 53283  53.2173   5.3963 0001101  86.5997 273.5121 15.08850919 49658,6917.847,95.437,540.474,538.95,0.0
53283.0,STARLINK-4175,PAYLOAD,2023-06-11 06:13:03,15.08827238,0.0001107,53.2174,4.2069,91.8687,268.2432,0.0002639,3.913e-05,0.0,0 STARLINK-4175,1 53283U 22086AT  23162.25906681  .00003913  00000-0  26390-3 0  9999,2 53283  53.2174   4.2069 0001107  91.8687 268.2432 15.08827238 49693,6917.919,95.438,540.55,539.019,0.0
53283.0,STARLINK-4175,PAYLOAD,2023-06-11 14:09:59,15.08832648,0.0001183,53.2172,2.7205,93.1416,266.9712,4.0718e-05,3.6e-06,0.0,0 STARLINK-4175,1 53283U 22086AT  23162.59026842  .00000360  00000-0  40718-4 0  9992,2 53283  53.2172   2.7205 0001183  93.1416 266.9712 15.08832648 49917,6917.903,95.438,540.586,538.949,0.0
53283.0,STARLINK-4175,PAYLOAD,2023-06-11 22:06:54,15.08837476,0.0001185,53.2175,1.234,89.1407,270.9721,6.4283e-05,7.35e-06,0.0,0 STARLINK-4175,1 53283U 22086AT  23162.92146548  .00000735  00000-0  64283-4 0  9994,2 53283  53.2175   1.2340 0001185  89.1407 270.9721 15.08837476 49965,6917.888,95.438,540.573,538.933,0.0
53283.0,STARLINK-4175,PAYLOAD,2023-06-12 12:25:23,15.08833029,0.0001025,53.2178,358.5585,87.9338,272.1771,4.9903e-05,5.06e-06,0.0,0 STARLINK-4175,1 53283U 22086AT  23163.51762998  .00000506  00000-0  49903-4 0  9991,2 53283  53.2178 358.5585 0001025  87.9338 272.1771 15.08833029 50050,6917.902,95.438,540.476,539.058,0.0
53283.0,STARLINK-4175,PAYLOAD,2023-06-13 12:16:09,15.08839368,0.0001152,53.2182,354.0982,92.1103,268.0021,9.0571e-05,1.154e-05,0.0,0 STARLINK-4175,1 53283U 22086AT  23164.51122567  .00001154  00000-0  90571-4 0  9991,2 53283  53.2182 354.0982 0001152  92.1103 268.0021 15.08839368 50038,6917.882,95.438,540.544,538.95,0.0
53283.0,STARLINK-4175,PAYLOAD,2023-06-13 13:51:33,15.08837655,0.0001157,53.2182,353.8004,86.7948,273.3177,8.2532e-05,1.026e-05,0.0,0 STARLINK-4175,1 53283U 22086AT  23164.57746748  .00001026  00000-0  82532-4 0  9996,2 53283  53.2182 353.8004 0001157  86.7948 273.3177 15.08837655 50219,6917.888,95.438,540.553,538.952,0.0
53283.0,STARLINK-4175,PAYLOAD,2023-06-14 12:06:56,15.08841021,6.55e-05,53.2184,349.6368,93.403,266.7037,9.5062e-05,1.226e-05,0.0,0 STARLINK-4175,1 53283U 22086AT  23165.50482304  .00001226  00000-0  95062-4 0  9999,2 53283  53.2184 349.6368 0000655  93.4030 266.7037 15.08841021 50354,6917.877,95.437,540.195,539.289,0.0
53283.0,STARLINK-4175,PAYLOAD,2023-06-14 18:28:28,15.08844925,4.69e-05,53.2186,348.4479,99.1922,260.9124,0.00011073,1.475e-05,0.0,0 STARLINK-4175,1 53283U 22086AT  23165.76977888  .00001475  00000-0  11073-3 0  9998,2 53283  53.2186 348.4479 0000469  99.1922 260.9124 15.08844925 50227,6917.865,95.437,540.055,539.406,0.0
53283.0,STARLINK-4175,PAYLOAD,2023-06-14 21:39:14,15.08858917,0.000104,53.2178,347.8521,84.9794,275.1317,0.00019376,2.799e-05,0.0,0 STARLINK-4175,1 53283U 22086AT  23165.90224751  .00002799  00000-0  19376-3 0  9992,2 53283  53.2178 347.8521 0001040  84.9794 275.1317 15.08858917 50244,6917.823,95.436,540.407,538.968,0.0
53283.0,STARLINK-4175,PAYLOAD,2023-06-15 05:36:11,15.08841289,0.0001599,53.2178,346.3649,82.6583,277.4591,3.7422e-05,3.08e-06,0.0,0 STARLINK-4175,1 53283U 22086AT  23166.23346266  .00000308  00000-0  37422-4 0  9992,2 53283  53.2178 346.3649 0001599  82.6583 277.4591 15.08841289 50297,6917.876,95.437,540.848,538.635,0.0
53283.0,STARLINK-4175,PAYLOAD,2023-06-15 11:57:43,15.08841173,0.0001687,53.2168,345.1748,87.247,272.8715,-4.9634e-08,-2.89e-06,0.0,0 STARLINK-4175,1 53283U 22086AT  23166.49842438 -.00000289  00000-0 -49634-7 0  9993,2 53283  53.2168 345.1748 0001687  87.2470 272.8715 15.08841173 50500,6917.877,95.437,540.909,538.575,0.0
53283.0,STARLINK-4175,PAYLOAD,2023-06-15 18:19:16,15.08836565,0.0001351,53.2182,343.9864,88.1381,271.9766,-3.422e-05,-8.32e-06,0.0,0 STARLINK-4175,1 53283U 22086AT  23166.76338764 -.00000832  00000-0 -34220-4 0  9991,2 53283  53.2182 343.9864 0001351  88.1381 271.9766 15.08836565 50370,6917.891,95.438,540.69,538.821,0.0
53283.0,STARLINK-4175,PAYLOAD,2023-06-16 11:48:30,15.08844678,0.0001239,53.2184,340.715,93.8638,266.2496,-1.3137e-05,-4.97e-06,0.0,0 STARLINK-4175,1 53283U 22086AT  23167.49202129 -.00000497  00000-0 -13137-4 0  9998,2 53283  53.2184 340.7150 0001239  93.8638 266.2496 15.08844678 50650,6917.866,95.437,540.588,538.874,0.0
53283.0,STARLINK-4175,PAYLOAD,2023-06-16 14:59:16,15.08850978,0.0001303,53.2173,340.1209,87.931,272.1831,-2.1916e-05,-6.37e-06,0.0,0 STARLINK-4175,1 53283U 22086AT  23167.62449702 -.00000637  00000-0 -21916-4 0  9993,2 53283  53.2173 340.1209 0001303  87.9310 272.1831 15.08850978 50503,6917.847,95.437,540.613,538.81,0.0
53283.0,STARLINK-4175,PAYLOAD,2023-06-16 18:10:02,15.08857409,0.0001236,53.2179,339.5253,93.3393,266.774,1.5999e-05,-3.3e-07,0.0,0 STARLINK-4175,1 53283U 22086AT  23167.75697097 -.00000033  00000-0  15999-4 0  9992,2 53283  53.2179 339.5253 0001236  93.3393 266.7740 15.08857409 50691,6917.827,95.436,540.547,538.837,0.0
53283.0,STARLINK-4175,PAYLOAD,2023-06-16 21:20:48,15.08858493,0.0001237,53.2178,338.9305,93.7025,266.4109,3.6921e-05,3e-06,0.0,0 STARLINK-4175,1 53283U 22086AT  23167.88944897  .00000300  00000-0  36921-4 0  9993,2 53283  53.2178 338.9305 0001237  93.7025 266.4109 15.08858493 50542,6917.824,95.436,540.545,538.833,0.0
53283.0,STARLINK-4175,PAYLOAD,2023-06-17 11:39:18,15.08821753,0.0001144,53.217,336.2543,101.9946,258.1174,-2.3802e-05,-6.66e-06,0.0,0 STARLINK-4175,1 53283U 22086AT  23168.48563390 -.00000666  00000-0 -23802-4 0  9996,2 53283  53.2170 336.2543 0001144 101.9946 258.1174 15.08821753 50808,6917.936,95.439,540.593,539.01,0.0
53283.0,STARLINK-4175,PAYLOAD,2023-06-17 18:00:51,15.08821336,0.0001061,53.2171,335.0651,95.6072,264.5042,-2.3272e-05,-6.58e-06,0.0,0 STARLINK-4175,1 53283U 22086AT  23168.75059767 -.00000658  00000-0 -23272-4 0  9996,2 53283  53.2171 335.0651 0001061  95.6072 264.5042 15.08821336 50670,6917.937,95.439,540.536,539.068,0.0
